[{"OBJECT_NAME":"TIANQI-31","OBJECT_ID":"2024-170C","EPOCH":"2026-03-09T19:56:33.224640","MEAN_MOTION":13.99125748,"ECCENTRICITY":0.00074343,"INCLINATION":44.861,"RA_OF_ASC_NODE":220.3339,"ARG_OF_PERICENTER":324.2667,"MEAN_ANOMALY":35.7666,"EPHEMERIS_TYPE":0,"CLASSIFICATION_TYPE":"U","NORAD_CAT_ID":61197,"ELEMENT_SET_NO":999,"REV_AT_EPOCH":7503,"BSTAR":0.00014351436,"MEAN_MOTION_DOT":8.1e-7,"MEAN_MOTION_DDOT":0},{"OBJECT_NAME":"FENGYUN 1C DEB","OBJECT_ID":"1999-025DRC","EPOCH":"2026-03-09T01:27:54.252576","MEAN_MOTION":14.06809603,"ECCENTRICITY":0.006984,"INCLINATION":98.8293,"RA_OF_ASC_NODE":111.2781,"ARG_OF_PERICENTER":274.8955,"MEAN_ANOMALY":84.4243,"EPHEMERIS_TYPE":0,"CLASSIFICATION_TYPE":"U","NORAD_CAT_ID":35244,"ELEMENT_SET_NO":999,"REV_AT_EPOCH":67035,"BSTAR":0.00060132755,"MEAN_MOTION_DOT":9.79e-6,"MEAN_MOTION_DDOT":0}]
